OBJECT_NAME,OBJECT_ID,EPOCH,MEAN_MOTION,ECCENTRICITY,INCLINATION,RA_OF_ASC_NODE,ARG_OF_PERICENTER,MEAN_ANOMALY,EPHEMERIS_TYPE,CLASSIFICATION_TYPE,NORAD_CAT_ID,ELEMENT_SET_NO,REV_AT_EPOCH,BSTAR,MEAN_MOTION_DOT,MEAN_MOTION_DDOT
GAOFEN-11 01,2018-063A,2026-07-23T15:24:16.570944,15.56273977,.00041491,97.1272,271.4382,169.1868,190.9477,0,U,43585,999,44601,.27670542E-3,.19364E-3,0
ICESAT-2,2018-070A,2026-07-23T13:28:58.613664,15.28286002,.00045332,92.0085,300.8091,39.3960,320.7618,0,U,43613,999,43801,.34208916E-3,.9426E-4,0
HYSIS,2018-096A,2026-07-23T14:50:04.902720,14.78625061,.00016661,97.9821,271.0769,72.9753,287.1640,0,U,43719,999,41280,.21784946E-3,.1543E-4,0
KAZSTSAT,2018-099AB,2026-07-23T12:31:53.007456,14.99961770,.00072092,97.4301,234.8148,305.3153,54.7397,0,U,43783,999,41675,.25859277E-4,.265E-5,0
SAUDISAT 5A,2018-102A,2026-07-23T15:15:33.126048,15.28385677,.0009586,97.3048,265.5176,15.8909,344.2630,0,U,43831,999,42124,.21833938E-3,.5968E-4,0
SAUDISAT 5B,2018-102C,2026-07-23T15:34:10.664256,15.28625244,.00103824,97.3157,268.6661,17.2328,342.9262,0,U,43833,999,42136,.20304494E-3,.5587E-4,0
GAOFEN-10R,2019-066A,2026-07-23T14:05:58.199424,14.83071326,.00063784,98.0513,158.4354,30.0113,330.1464,0,U,44622,999,36777,.14282687E-3,.1108E-4,0
CARTOSAT-3,2019-081A,2026-07-23T15:30:08.408160,15.19230957,.00122403,97.4285,265.9210,32.0039,328.1936,0,U,44804,999,36900,.31724012E-3,.6628E-4,0
GAOFEN-12 01,2019-082A,2026-07-23T13:50:39.412320,14.80484628,.00006364,97.8114,209.9980,76.9781,283.1503,0,U,44819,999,35947,.53109442E-4,.356E-5,0
CSG-1,2019-092A,2026-07-23T13:47:20.600736,14.82162084,.00014684,97.8900,27.6524,94.9781,265.1600,0,U,44873,999,35686,.55792978E-4,.392E-5,0
NEMO-HD,2020-061F,2026-07-23T14:16:49.325376,15.45276348,.0001139,97.1900,266.1926,119.3695,240.7669,0,U,46277,999,32760,.24106959E-3,.11388E-3,0
SENTINEL-6A,2020-086A,2026-07-23T01:53:01.311360,12.80930280,.00077799,66.0410,60.5060,269.6212,90.3912,0,U,46984,999,26492,.9039408E-5,-.59E-6,0
CAS500-1,2021-022A,2026-07-23T15:52:44.010336,15.20143010,.00059599,97.3853,99.1676,142.6399,217.5252,0,U,47932,999,29630,.32440045E-3,.6953E-4,0
GAOFEN-12 02,2021-026A,2026-07-23T14:12:13.700736,14.80320892,.00062017,97.9941,202.6271,110.6563,249.5314,0,U,48079,999,28714,.51986775E-4,.343E-5,0
PLEIADES NEO 3,2021-034A,2026-07-23T12:26:04.576992,14.81670344,.00013488,97.8942,278.7624,101.3678,258.7687,0,U,48268,999,28303,.1528143E-3,.1151E-4,0
PLEIADES NEO 4,2021-073E,2026-07-23T14:51:53.576640,14.81675885,.00013927,97.8936,278.8580,98.1462,261.9909,0,U,49070,999,26676,.13671236E-3,.1024E-4,0
LANDSAT 9,2021-088A,2026-07-23T04:18:37.156608,14.57099648,.00010624,98.2263,273.9181,94.8455,265.2865,0,U,49260,999,25624,.7074119E-4,.273E-5,0
CSG-2,2022-008A,2026-07-23T14:35:56.198112,14.82151609,.00015495,97.8904,27.6795,90.5569,269.5821,0,U,51444,999,24198,.89725821E-4,.662E-5,0
GAOFEN-12 03,2022-069A,2026-07-23T15:04:10.947072,14.80083186,.00022574,97.8229,91.5713,63.8893,296.2551,0,U,52912,999,22000,.39451642E-4,.248E-5,0
SWOT,2022-173A,2026-07-23T13:44:50.156736,14.00172842,.00002058,77.6119,346.1887,71.8612,288.2562,0,U,54754,999,18424,.6449449E-4,.93E-6,0
GAOFEN-12 04,2023-123A,2026-07-23T15:34:59.252160,14.79787307,.00030209,97.9094,122.1194,32.1086,328.0309,0,U,57654,999,15802,.12488784E-3,.888E-5,0
PARS 1,2024-039Q,2026-07-23T14:57:19.329696,15.46432713,.00086173,97.4846,186.7150,357.0562,3.0635,0,U,59065,999,13427,.25889862E-3,.12745E-3,0
RESURS-P 4,2024-061A,2026-07-23T15:20:08.581344,15.32317366,.00031839,97.2758,151.9103,77.8490,282.3109,0,U,59371,999,12934,.1051486E-3,.3204E-4,0
LEGION 1,2024-081A,2026-07-23T13:50:49.890048,15.16884711,.00080074,97.5003,282.0482,234.8085,125.2399,0,U,59625,999,12305,.18509115E-3,.358E-4,0
LEGION 2,2024-081B,2026-07-23T12:59:45.879072,15.16865180,.00109195,97.5004,282.1097,201.9233,158.1535,0,U,59626,999,12305,.17280312E-3,.3338E-4,0
ALOS-4 (DAICHI-4),2024-123A,2026-07-23T14:42:11.119680,14.79477195,.00015668,97.9221,301.2656,98.1097,262.0292,0,U,60182,999,11126,.18877511E-3,.1359E-4,0
LEGION 3,2024-146A,2026-07-23T09:03:30.490272,15.15690109,.00073171,44.9999,196.5295,20.0217,340.0948,0,U,60452,999,10751,.18664738E-3,.3353E-4,0
LEGION 4,2024-146B,2026-07-23T13:47:35.553120,15.15727895,.00096317,45.0020,287.3392,164.9852,195.1314,0,U,60453,999,10639,.21288758E-3,.3867E-4,0
SENTINEL-2C,2024-157A,2026-07-23T04:28:38.090208,14.30817349,.00010443,98.5678,278.4566,108.8360,251.2937,0,U,60989,999,9813,.4410906E-4,.72E-6,0
IONOSFERA-M 1,2024-199A,2026-07-23T14:56:27.504384,14.22760311,.00020119,98.7124,77.4018,61.2091,298.9289,0,U,61735,999,13288,.2877403E-4,.21E-6,0
