GAOFEN-11 01            
1 43585U 18063A   26204.64185846  .00019364  00000+0  27671-3 0  9997
2 43585  97.1272 271.4382 0004149 169.1868 190.9477 15.56273977446013
ICESAT-2                
1 43613U 18070A   26204.56178951  .00009426  00000+0  34209-3 0  9990
2 43613  92.0085 300.8091 0004533  39.3960 320.7618 15.28286002438016
HYSIS                   
1 43719U 18096A   26204.61811230  .00001543  00000+0  21785-3 0  9992
2 43719  97.9821 271.0769 0001666  72.9753 287.1640 14.78625061412809
KAZSTSAT                
1 43783U 18099AB  26204.52214129  .00000265  00000+0  25859-4 0  9997
2 43783  97.4301 234.8148 0007209 305.3153  54.7397 14.99961770416750
SAUDISAT 5A             
1 43831U 18102A   26204.63580007  .00005968  00000+0  21834-3 0  9992
2 43831  97.3048 265.5176 0009586  15.8909 344.2630 15.28385677421241
SAUDISAT 5B             
1 43833U 18102C   26204.64873454  .00005587  00000+0  20304-3 0  9994
2 43833  97.3157 268.6661 0010382  17.2328 342.9262 15.28625244421360
GAOFEN-10R              
1 44622U 19066A   26204.58747916  .00001108  00000+0  14283-3 0  9991
2 44622  98.0513 158.4354 0006378  30.0113 330.1464 14.83071326367774
CARTOSAT-3              
1 44804U 19081A   26204.64593065  .00006628  00000+0  31724-3 0  9992
2 44804  97.4285 265.9210 0012240  32.0039 328.1936 15.19230957369000
GAOFEN-12 01            
1 44819U 19082A   26204.57684505  .00000356  00000+0  53109-4 0  9995
2 44819  97.8114 209.9980 0000636  76.9781 283.1503 14.80484628359473
CSG-1                   
1 44873U 19092A   26204.57454399  .00000392  00000+0  55793-4 0  9993
2 44873  97.8900  27.6524 0001468  94.9781 265.1600 14.82162084356868
NEMO-HD                 
1 46277U 20061F   26204.59501534  .00011388  00000+0  24107-3 0  9998
2 46277  97.1900 266.1926 0001139 119.3695 240.7669 15.45276348327601
SENTINEL-6A             
1 46984U 20086A   26204.07848740 -.00000059  00000+0  90394-5 0  9993
2 46984  66.0410  60.5060 0007779 269.6212  90.3912 12.80930280264925
CAS500-1                
1 47932U 21022A   26204.66162049  .00006953  00000+0  32440-3 0  9998
2 47932  97.3853  99.1676 0005959 142.6399 217.5252 15.20143010296303
GAOFEN-12 02            
1 48079U 21026A   26204.59182524  .00000343  00000+0  51987-4 0  9992
2 48079  97.9941 202.6271 0006201 110.6563 249.5314 14.80320892287147
PLEIADES NEO 3          
1 48268U 21034A   26204.51810853  .00001151  00000+0  15281-3 0  9990
2 48268  97.8942 278.7624 0001348 101.3678 258.7687 14.81670344283034
PLEIADES NEO 4          
1 49070U 21073E   26204.61937010  .00001024  00000+0  13671-3 0  9991
2 49070  97.8936 278.8580 0001392  98.1462 261.9909 14.81675885266763
LANDSAT 9               
1 49260U 21088A   26204.17959672  .00000273  00000+0  70741-4 0  9994
2 49260  98.2263 273.9181 0001062  94.8455 265.2865 14.57099648256244
CSG-2                   
1 51444U 22008A   26204.60828933  .00000662  00000+0  89726-4 0  9992
2 51444  97.8904  27.6795 0001549  90.5569 269.5821 14.82151609241980
GAOFEN-12 03            
1 52912U 22069A   26204.62790448  .00000248  00000+0  39452-4 0  9992
2 52912  97.8229  91.5713 0002257  63.8893 296.2551 14.80083186220000
SWOT                    
1 54754U 22173A   26204.57280274  .00000093  00000+0  64494-4 0  9991
2 54754  77.6119 346.1887 0000205  71.8612 288.2562 14.00172842184248
GAOFEN-12 04            
1 57654U 23123A   26204.64929690  .00000888  00000+0  12489-3 0  9997
2 57654  97.9094 122.1194 0003020  32.1086 328.0309 14.79787307158026
PARS 1                  
1 59065U 24039Q   26204.62314039  .00012745  00000+0  25890-3 0  9990
2 59065  97.4846 186.7150 0008617 357.0562   3.0635 15.46432713134273
RESURS-P 4              
1 59371U 24061A   26204.63898821  .00003204  00000+0  10515-3 0  9990
2 59371  97.2758 151.9103 0003183  77.8490 282.3109 15.32317366129346
LEGION 1                
1 59625U 24081A   26204.57696632  .00003580  00000+0  18509-3 0  9991
2 59625  97.5003 282.0482 0008007 234.8085 125.2399 15.16884711123058
LEGION 2                
1 59626U 24081B   26204.54150323  .00003338  00000+0  17280-3 0  9997
2 59626  97.5004 282.1097 0010919 201.9233 158.1535 15.16865180123054
ALOS-4 (DAICHI-4)       
1 60182U 24123A   26204.61262870  .00001359  00000+0  18878-3 0  9997
2 60182  97.9221 301.2656 0001566  98.1097 262.0292 14.79477195111262
LEGION 3                
1 60452U 24146A   26204.37743623  .00003353  00000+0  18665-3 0  9995
2 60452  44.9999 196.5295 0007317  20.0217 340.0948 15.15690109107519
LEGION 4                
1 60453U 24146B   26204.57471705  .00003867  00000+0  21289-3 0  9993
2 60453  45.0020 287.3392 0009631 164.9852 195.1314 15.15727895106392
SENTINEL-2C             
1 60989U 24157A   26204.18655197  .00000072  00000+0  44109-4 0  9997
2 60989  98.5678 278.4566 0001044 108.8360 251.2937 14.30817349 98130
IONOSFERA-M 1           
1 61735U 24199A   26204.62254056  .00000021  00000+0  28774-4 0  9995
2 61735  98.7124  77.4018 0002011  61.2091 298.9289 14.22760311132881
